ICEYE-X6                
1 46497U 20068M   26136.86437498  .00002151  00000+0  15907-3 0  9996
2 46497  98.0966 129.0452 0006952 184.5516 175.5646 15.04339316308522
NETSAT-4                
1 46504U 20068U   26136.74313825  .00015447  00000+0  35494-3 0  9994
2 46504  97.8609 142.4855 0007530  80.4936 279.7161 15.42756823310925
NETSAT-3                
1 46505U 20068V   26136.72479389  .00015182  00000+0  36342-3 0  9990
2 46505  97.8658 140.7232 0007532  93.4372 266.7735 15.41529090310836
NETSAT-1                
1 46506U 20068W   26136.82931367  .00010472  00000+0  32241-3 0  9992
2 46506  97.8747 135.5287 0006991 112.6519 247.5463 15.33827700310490
NETSAT-2                
1 46507U 20068X   26136.75856928  .00019665  00000+0  42429-3 0  9996
2 46507  97.8624 142.2898 0006283 102.6822 257.5128 15.44585399310887
TIANQI-6                
1 46810U 20076D   26136.67105451  .00002410  00000+0  15953-3 0  9993
2 46810  34.9991 241.8572 0010946 252.3860 107.5654 15.06965198303825
KSM1-C                  
1 46906U 20081B   26136.69751645  .00005807  00000+0  22288-3 0  9991
2 46906  36.8940 253.2680 0002712 289.4623  70.5832 15.26198293304355
KSM1-D                  
1 46907U 20081C   26136.72381704  .00005112  00000+0  20839-3 0  9990
2 46907  36.8969 261.5197 0004179 338.0505  22.0064 15.24260998304293
KSM1-A                  
1 46912U 20081H   26136.68490499  .00005368  00000+0  21103-3 0  9991
2 46912  36.8964 255.5030 0002083  44.3506 315.7409 15.25449458304367
R2                      
1 46913U 20081J   26136.69576707  .00005888  00000+0  23441-3 0  9994
2 46913  36.8979 255.2617 0006821   8.6020 351.4845 15.24958565307176
KSM1-B                  
1 46914U 20081K   26136.72300419  .00004820  00000+0  19788-3 0  9998
2 46914  36.9022 262.0554 0005352   4.3410 355.7385 15.24059196307388
GONETS-M 20             
1 47227U 20091A   26136.85378039  .00000062  00000+0  37827-3 0  9992
2 47227  82.5029 321.9202 0020014 248.1822 111.7129 12.42893105247182
GONETS-M 21             
1 47228U 20091B   26136.82748497  .00000096  00000+0  62370-3 0  9997
2 47228  82.4952 320.6627 0013782 263.0536  96.8976 12.42885388247172
GONETS-M 22             
1 47229U 20091C   26136.88120535  .00000064  00000+0  39299-3 0  9990
2 47229  82.5012 321.5133 0020910 243.1846 116.7095 12.42891346247138
CUBEL                   
1 47448U 21006AM  26136.79356794  .00006825  00000+0  17041-3 0  9990
2 47448  97.2356 187.6900 0004807 289.1536  70.9190 15.40476045294923
ARKTIKA-M 1             
1 47719U 21016A   26134.09923816 -.00000093  00000+0  00000+0 0  9993
2 47719  63.2320  62.5595 7275544 269.7829  14.8431  2.00633697 38104
STARLINK-2342           
1 47883U 21021Z   26136.78622606  .00045682  00000+0  67462-3 0  9993
2 47883  53.1557 302.1525 0003384 235.3283 124.7409 15.54911683286983
GRUS-1B                 
1 47934U 21022C   26136.86854484  .00000549  00000+0  50050-4 0  9990
2 47934  97.5422  21.0916 0016964  66.8606 293.4403 14.98898502281207
UNISAT-7                
1 47945U 21022P   26136.71057765  .00011475  00000+0  29325-3 0  9993
2 47945  97.3923  41.3251 0009243 173.8846 186.2514 15.39580183285011
GLOBAL-9                
1 47971U 21023G   26136.84957909  .00017243  00000+0  36089-3 0  9990
2 47971  44.9822  66.4840 0002538 141.1559 218.9513 15.45277725290095
AII-BRAVO               
1 48270U 21034C   26136.80455002  .00002759  00000+0  20821-3 0  9991
2 48270  97.5647 192.4344 0006561  34.3242 325.8406 15.03219033274901
TYVAK-182A              
1 48271U 21034D   26136.83648968  .00003966  00000+0  27729-3 0  9995
2 48271  97.5747 196.3022 0007433  82.5260 277.6811 15.05846903275115
CSS (TIANHE)            
1 48274U 21035A   26136.74207985  .00012846  00000+0  15443-3 0  9996
2 48274  41.4667 153.2288 0007344 244.4572 115.5507 15.60615210288256
TYVAK-0130              
1 48606U 21041BF  26136.50471986  .00005784  00000+0  22728-3 0  9997
2 48606  52.9936 173.1678 0011267  71.6371 288.5850 15.27102921275544
HAIYANG-2D              
1 48621U 21043A   26136.84426003 -.00000051  00000+0  27832-4 0  9998
2 48621  66.0010  22.7346 0011383 272.9340  87.0426 13.83372830252210
TYVAK-0173              
1 48892U 21059P   26136.18991198  .00001150  00000+0  14969-3 0  9990
2 48892  96.0084 220.5016 0010635 131.1720 229.0417 14.81774435263501
MANDRAKE 2 ABLE         
1 48907U 21059AE  26136.82122251  .00018928  00000+0  29752-3 0  9991
2 48907  97.7037 324.2465 0006255 106.0427 254.1515 15.53665201272252
