OBJECT_NAME,OBJECT_ID,EPOCH,MEAN_MOTION,ECCENTRICITY,INCLINATION,RA_OF_ASC_NODE,ARG_OF_PERICENTER,MEAN_ANOMALY,EPHEMERIS_TYPE,CLASSIFICATION_TYPE,NORAD_CAT_ID,ELEMENT_SET_NO,REV_AT_EPOCH,BSTAR,MEAN_MOTION_DOT,MEAN_MOTION_DDOT
ICEYE-X6,2020-068M,2026-05-16T20:44:41.998272,15.04339316,.0006952,98.0966,129.0452,184.5516,175.5646,0,U,46497,999,30852,.15907E-3,.2151E-4,0
NETSAT-4,2020-068U,2026-05-16T17:50:07.144800,15.42756823,.000753,97.8609,142.4855,80.4936,279.7161,0,U,46504,999,31092,.35494E-3,.15447E-3,0
NETSAT-3,2020-068V,2026-05-16T17:23:42.192096,15.41529090,.0007532,97.8658,140.7232,93.4372,266.7735,0,U,46505,999,31083,.36342E-3,.15182E-3,0
NETSAT-1,2020-068W,2026-05-16T19:54:12.701088,15.33827700,.0006991,97.8747,135.5287,112.6519,247.5463,0,U,46506,999,31049,.32241E-3,.10472E-3,0
NETSAT-2,2020-068X,2026-05-16T18:12:20.385792,15.44585399,.0006283,97.8624,142.2898,102.6822,257.5128,0,U,46507,999,31088,.42429E-3,.19665E-3,0
TIANQI-6,2020-076D,2026-05-16T16:06:19.109664,15.06965198,.0010946,34.9991,241.8572,252.3860,107.5654,0,U,46810,999,30382,.15953E-3,.241E-4,0
KSM1-C,2020-081B,2026-05-16T16:44:25.421280,15.26198293,.0002712,36.8940,253.2680,289.4623,70.5832,0,U,46906,999,30435,.22288E-3,.5807E-4,0
KSM1-D,2020-081C,2026-05-16T17:22:17.792256,15.24260998,.0004179,36.8969,261.5197,338.0505,22.0064,0,U,46907,999,30429,.20839E-3,.5112E-4,0
KSM1-A,2020-081H,2026-05-16T16:26:15.791136,15.25449458,.0002083,36.8964,255.5030,44.3506,315.7409,0,U,46912,999,30436,.21103E-3,.5368E-4,0
R2,2020-081J,2026-05-16T16:41:54.274848,15.24958565,.0006821,36.8979,255.2617,8.6020,351.4845,0,U,46913,999,30717,.23441E-3,.5888E-4,0
KSM1-B,2020-081K,2026-05-16T17:21:07.562016,15.24059196,.0005352,36.9022,262.0554,4.3410,355.7385,0,U,46914,999,30738,.19788E-3,.482E-4,0
GONETS-M 20,2020-091A,2026-05-16T20:29:26.625696,12.42893105,.0020014,82.5029,321.9202,248.1822,111.7129,0,U,47227,999,24718,.37827E-3,.62E-6,0
GONETS-M 21,2020-091B,2026-05-16T19:51:34.701408,12.42885388,.0013782,82.4952,320.6627,263.0536,96.8976,0,U,47228,999,24717,.6237E-3,.96E-6,0
GONETS-M 22,2020-091C,2026-05-16T21:08:56.142240,12.42891346,.002091,82.5012,321.5133,243.1846,116.7095,0,U,47229,999,24713,.39299E-3,.64E-6,0
CUBEL,2021-006AM,2026-05-16T19:02:44.270016,15.40476045,.0004807,97.2356,187.6900,289.1536,70.9190,0,U,47448,999,29492,.17041E-3,.6825E-4,0
ARKTIKA-M 1,2021-016A,2026-05-14T02:22:54.177024,2.00633697,.72755444,63.2320,62.5595,269.7829,14.8431,0,U,47719,999,3810,0,-.93E-6,0
STARLINK-2342,2021-021Z,2026-05-16T18:52:09.931584,15.54911683,.0003384,53.1557,302.1525,235.3283,124.7409,0,U,47883,999,28698,.67462E-3,.45682E-3,0
GRUS-1B,2021-022C,2026-05-16T20:50:42.274176,14.98898502,.0016964,97.5422,21.0916,66.8606,293.4403,0,U,47934,999,28120,.5005E-4,.549E-5,0
UNISAT-7,2021-022P,2026-05-16T17:03:13.908960,15.39580183,.0009243,97.3923,41.3251,173.8846,186.2514,0,U,47945,999,28501,.29325E-3,.11475E-3,0
GLOBAL-9,2021-023G,2026-05-16T20:23:23.633376,15.45277725,.0002538,44.9822,66.4840,141.1559,218.9513,0,U,47971,999,29009,.36089E-3,.17243E-3,0
AII-BRAVO,2021-034C,2026-05-16T19:18:33.121728,15.03219033,.0006561,97.5647,192.4344,34.3242,325.8406,0,U,48270,999,27490,.20821E-3,.2759E-4,0
TYVAK-182A,2021-034D,2026-05-16T20:04:32.708352,15.05846903,.0007433,97.5747,196.3022,82.5260,277.6811,0,U,48271,999,27511,.27729E-3,.3966E-4,0
CSS (TIANHE),2021-035A,2026-05-16T17:48:35.699040,15.60615210,.0007344,41.4667,153.2288,244.4572,115.5507,0,U,48274,999,28825,.15443E-3,.12846E-3,0
TYVAK-0130,2021-041BF,2026-05-16T12:06:47.795904,15.27102921,.0011267,52.9936,173.1678,71.6371,288.5850,0,U,48606,999,27554,.22728E-3,.5784E-4,0
HAIYANG-2D,2021-043A,2026-05-16T20:15:44.066592,13.83372830,.0011383,66.0010,22.7346,272.9340,87.0426,0,U,48621,999,25221,.27832E-4,-.51E-6,0
TYVAK-0173,2021-059P,2026-05-16T04:33:28.395072,14.81774435,.00106358,96.0084,220.5016,131.1720,229.0417,0,U,48892,999,26350,.14968686E-3,.115E-4,0
MANDRAKE 2 ABLE,2021-059AE,2026-05-16T19:42:33.624864,15.53665201,.0006255,97.7037,324.2465,106.0427,254.1515,0,U,48907,999,27225,.29752E-3,.18928E-3,0
